NORAD_CAT_ID,OBJECT_NAME,OBJECT_TYPE,EPOCH,MEAN_MOTION,ECCENTRICITY,INCLINATION,RA_OF_ASC_NODE,ARG_OF_PERICENTER,MEAN_ANOMALY,BSTAR,MEAN_MOTION_DOT,MEAN_MOTION_DDOT,TLE_LINE0,TLE_LINE1,TLE_LINE2,SEMIMAJOR_AXIS,PERIOD,APOGEE,PERIGEE,DECAYED
56767.0,STARLINK-6197,PAYLOAD,2024-02-21 11:56:28,14.98333404,0.000287,69.999,88.4485,264.1506,95.9326,3.4865e-05,3.23e-06,0.0,0 STARLINK-6197,1 56767U 23078A   24052.49754763  .00000323  00000-0  34865-4 0  9997,2 56767  69.9990  88.4485 0002870 264.1506  95.9326 14.98333404 40268,6950.182,96.107,574.042,570.053,0.0
56767.0,STARLINK-6197,PAYLOAD,2024-02-21 19:57:08,14.98329283,0.0002847,69.9998,87.6069,270.8317,89.2515,4.2918e-05,4.19e-06,0.0,0 STARLINK-6197,1 56767U 23078A   24052.83135050  .00000419  00000-0  42918-4 0  9991,2 56767  69.9998  87.6069 0002847 270.8317  89.2515 14.98329283 40315,6950.195,96.107,574.039,570.081,0.0
56767.0,STARLINK-6197,PAYLOAD,2024-02-22 03:57:49,14.98326536,0.0003072,69.9988,86.7653,268.9512,91.1295,4.7801e-05,4.77e-06,0.0,0 STARLINK-6197,1 56767U 23078A   24053.16515162  .00000477  00000-0  47801-4 0  9994,2 56767  69.9988  86.7653 0003072 268.9512  91.1295 14.98326536 40628,6950.204,96.107,574.204,569.934,0.0
56767.0,STARLINK-6197,PAYLOAD,2024-02-22 11:58:29,14.98330043,0.000309,69.999,85.9241,269.6385,90.442,4.312e-05,4.22e-06,0.0,0 STARLINK-6197,1 56767U 23078A   24053.49894990  .00000422  00000-0  43120-4 0  9999,2 56767  69.9990  85.9241 0003090 269.6385  90.4420 14.98330043 40418,6950.193,96.107,574.205,569.91,0.0
56767.0,STARLINK-6197,PAYLOAD,2024-02-23 03:59:49,14.98328717,0.0003204,69.9993,84.2405,269.0867,90.9925,6.7292e-05,7.1e-06,0.0,0 STARLINK-6197,1 56767U 23078A   24054.16654908  .00000710  00000-0  67292-4 0  9993,2 56767  69.9993  84.2405 0003204 269.0867  90.9925 14.98328717 40770,6950.197,96.107,574.289,569.835,0.0
56767.0,STARLINK-6197,PAYLOAD,2024-02-23 12:00:29,14.98336161,0.0002961,69.9993,83.3991,266.9988,93.0832,1.0135e-05,2.8e-07,0.0,0 STARLINK-6197,1 56767U 23078A   24054.50034533  .00000028  00000-0  10135-4 0  9993,2 56767  69.9993  83.3991 0002961 266.9988  93.0832 14.98336161 40569,6950.174,96.107,574.097,569.981,0.0
56767.0,STARLINK-6197,PAYLOAD,2024-02-24 04:01:50,14.98328189,0.0002959,69.9993,81.7156,270.904,89.178,-1.885e-05,-3.18e-06,0.0,0 STARLINK-6197,1 56767U 23078A   24055.16795077 -.00000318  00000-0 -18850-4 0  9999,2 56767  69.9993  81.7156 0002959 270.9040  89.1780 14.98328189 40924,6950.198,96.107,574.12,570.007,0.0
56767.0,STARLINK-6197,PAYLOAD,2024-02-24 12:02:31,14.98327894,0.0002747,69.9997,80.875,263.7062,96.3785,-2.3443e-05,-3.73e-06,0.0,0 STARLINK-6197,1 56767U 23078A   24055.50175122 -.00000373  00000-0 -23443-4 0  9995,2 56767  69.9997  80.8750 0002747 263.7062  96.3785 14.98327894 40711,6950.199,96.107,573.974,570.155,0.0
56767.0,STARLINK-6197,PAYLOAD,2024-02-24 18:27:03,14.98332164,0.0002842,69.9997,80.2018,268.098,91.9854,-6.5434e-05,-8.74e-06,0.0,0 STARLINK-6197,1 56767U 23078A   24055.76878945 -.00000874  00000-0 -65434-4 0  9998,2 56767  69.9997  80.2018 0002842 268.0980  91.9854 14.98332164 40753,6950.186,96.107,574.026,570.076,0.0
56767.0,STARLINK-6197,PAYLOAD,2024-02-25 04:03:51,14.9831915,0.0002564,69.999,79.1909,263.8615,96.2252,0.0001963,2.249e-05,0.0,0 STARLINK-6197,1 56767U 23078A   24056.16934924  .00002249  00000-0  19630-3 0  9995,2 56767  69.9990  79.1909 0002564 263.8615  96.2252 14.98319150 41077,6950.226,96.108,573.873,570.309,0.0
56767.0,STARLINK-6197,PAYLOAD,2024-02-25 12:04:31,14.98333231,0.0002709,69.9999,78.3485,269.2586,90.8262,4.0461e-05,3.9e-06,0.0,0 STARLINK-6197,1 56767U 23078A   24056.50314526  .00000390  00000-0  40461-4 0  9995,2 56767  69.9999  78.3485 0002709 269.2586  90.8262 14.98333231 41127,6950.183,96.107,573.931,570.165,0.0
56767.0,STARLINK-6197,PAYLOAD,2024-02-25 18:29:03,14.98349496,0.0002703,70.0007,77.6753,273.5942,86.4907,-0.00036698,-4.471e-05,0.0,0 STARLINK-6197,1 56767U 23078A   24056.77018405 -.00004471  00000-0 -36698-3 0  9993,2 56767  70.0007  77.6753 0002703 273.5942  86.4907 14.98349496 40900,6950.133,96.106,573.876,570.119,0.0
56767.0,STARLINK-6197,PAYLOAD,2024-02-26 10:30:24,14.98330129,0.0002918,69.9995,75.9932,267.2915,92.791,3.6098e-05,3.38e-06,0.0,0 STARLINK-6197,1 56767U 23078A   24057.43778590  .00000338  00000-0  36098-4 0  9996,2 56767  69.9995  75.9932 0002918 267.2915  92.7910 14.98330129 41000,6950.192,96.107,574.086,570.029,0.0
56767.0,STARLINK-6197,PAYLOAD,2024-02-26 18:31:04,14.9833095,0.0002753,69.9999,75.1522,267.5519,92.5324,3.5643e-05,3.32e-06,0.0,0 STARLINK-6197,1 56767U 23078A   24057.77158553  .00000332  00000-0  35643-4 0  9993,2 56767  69.9999  75.1522 0002753 267.5519  92.5324 14.98330950 41314,6950.19,96.107,573.968,570.142,0.0
56767.0,STARLINK-6197,PAYLOAD,2024-02-27 04:07:53,14.98324907,0.0003023,69.9993,74.1421,266.5119,93.5694,-8.0934e-05,-1.058e-05,0.0,0 STARLINK-6197,1 56767U 23078A   24058.17215236 -.00001058  00000-0 -80934-4 0  9991,2 56767  69.9993  74.1421 0003023 266.5119  93.5694 14.98324907 41373,6950.209,96.107,574.175,569.973,0.0
56767.0,STARLINK-6197,PAYLOAD,2024-02-27 10:32:25,14.98336168,0.0003088,69.9992,73.4679,269.414,90.6665,-0.00018455,-2.295e-05,0.0,0 STARLINK-6197,1 56767U 23078A   24058.43918853 -.00002295  00000-0 -18455-3 0  9997,2 56767  69.9992  73.4679 0003088 269.4140  90.6665 14.98336168 41419,6950.174,96.107,574.185,569.893,0.0
56767.0,STARLINK-6197,PAYLOAD,2024-02-27 18:33:06,14.98330653,0.0003194,69.999,72.6263,268.296,91.7833,-3.3982e-05,-4.98e-06,0.0,0 STARLINK-6197,1 56767U 23078A   24058.77298759 -.00000498  00000-0 -33982-4 0  9996,2 56767  69.9990  72.6263 0003194 268.2960  91.7833 14.98330653 41201,6950.191,96.107,574.276,569.836,0.0
56767.0,STARLINK-6197,PAYLOAD,2024-02-28 10:34:26,14.983336,0.0003107,69.999,70.9424,270.1764,89.9039,2.5562e-05,2.12e-06,0.0,0 STARLINK-6197,1 56767U 23078A   24059.44058428  .00000212  00000-0  25562-4 0  9995,2 56767  69.9990  70.9424 0003107 270.1764  89.9039 14.98333600 41560,6950.182,96.107,574.206,569.887,0.0
56767.0,STARLINK-6197,PAYLOAD,2024-02-28 18:35:06,14.98331891,0.0003096,69.999,70.1007,270.3038,89.7766,1.5185e-05,8.8e-07,0.0,0 STARLINK-6197,1 56767U 23078A   24059.77438507  .00000088  00000-0  15185-4 0  9992,2 56767  69.9990  70.1007 0003096 270.3038  89.7766 14.98331891 41354,6950.187,96.107,574.204,569.9,0.0
56767.0,STARLINK-6197,PAYLOAD,2024-02-29 10:36:27,14.98330631,0.0003045,69.9992,68.4173,270.0401,90.041,6.0414e-05,6.28e-06,0.0,0 STARLINK-6197,1 56767U 23078A   24060.44198476  .00000628  00000-0  60414-4 0  9991,2 56767  69.9992  68.4173 0003045 270.0401  90.0410 14.98330631 41717,6950.191,96.107,574.172,569.94,0.0
56767.0,STARLINK-6197,PAYLOAD,2024-03-01 10:38:28,14.98331091,0.000296,69.9994,65.8921,270.1398,89.9421,-1.7472e-05,-3.01e-06,0.0,0 STARLINK-6197,1 56767U 23078A   24061.44338647 -.00000301  00000-0 -17472-4 0  9994,2 56767  69.9994  65.8921 0002960 270.1398  89.9421 14.98331091 41868,6950.19,96.107,574.112,569.997,0.0
56767.0,STARLINK-6197,PAYLOAD,2024-03-02 09:04:21,14.98330724,0.0002704,70.0001,63.5376,258.7746,101.3109,1.7389e-05,1.15e-06,0.0,0 STARLINK-6197,1 56767U 23078A   24062.37802450  .00000115  00000-0  17389-4 0  9993,2 56767  70.0001  63.5376 0002704 258.7746 101.3109 14.98330724 41745,6950.191,96.107,573.935,570.176,0.0
56767.0,STARLINK-6197,PAYLOAD,2024-03-02 17:05:02,14.98322187,0.0001886,70.0022,62.6951,255.6645,104.4305,0.00010806,1.196e-05,0.0,0 STARLINK-6197,1 56767U 23078A   24062.71183007  .00001196  00000-0  10806-3 0  9997,2 56767  70.0022  62.6951 0001886 255.6645 104.4305 14.98322187 42052,6950.217,96.108,573.393,570.771,0.0
56767.0,STARLINK-6197,PAYLOAD,2024-03-03 04:17:57,14.98328994,0.0002957,69.9996,61.5166,268.128,91.954,5.7728e-05,5.96e-06,0.0,0 STARLINK-6197,1 56767U 23078A   24063.17914326  .00000596  00000-0  57728-4 0  9992,2 56767  69.9996  61.5166 0002957 268.1280  91.9540 14.98328994 42120,6950.196,96.107,574.116,570.006,0.0
56767.0,STARLINK-6197,PAYLOAD,2024-03-03 09:06:22,14.98330013,0.0002859,69.9997,61.0116,266.5803,93.5029,1.8058e-05,1.22e-06,0.0,0 STARLINK-6197,1 56767U 23078A   24063.37942373  .00000122  00000-0  18058-4 0  9995,2 56767  69.9997  61.0116 0002859 266.5803  93.5029 14.98330013 41893,6950.193,96.107,574.045,570.071,0.0
56767.0,STARLINK-6197,PAYLOAD,2024-03-04 09:08:23,14.98330775,0.000267,70.0,58.4856,260.5185,99.5672,-2.04e-06,-1.17e-06,0.0,0 STARLINK-6197,1 56767U 23078A   24064.38082377 -.00000117  00000-0 -20400-5 0  9997,2 56767  70.0000  58.4856 0002670 260.5185  99.5672 14.98330775 42302,6950.19,96.107,573.911,570.2,0.0
56767.0,STARLINK-6197,PAYLOAD,2024-03-04 17:09:03,14.98328081,0.0002753,70.0006,57.6421,268.7577,91.3267,-4.7484e-05,-6.59e-06,0.0,0 STARLINK-6197,1 56767U 23078A   24064.71462718 -.00000659  00000-0 -47484-4 0  9996,2 56767  70.0006  57.6421 0002753 268.7577  91.3267 14.98328081 42097,6950.199,96.107,573.977,570.15,0.0
56767.0,STARLINK-6197,PAYLOAD,2024-03-05 02:45:52,14.98324449,0.0002961,69.9995,56.633,267.5648,92.5172,-4.3849e-05,-6.16e-06,0.0,0 STARLINK-6197,1 56767U 23078A   24065.11518956 -.00000616  00000-0 -43849-4 0  9991,2 56767  69.9995  56.6330 0002961 267.5648  92.5172 14.98324449 42414,6950.21,96.107,574.133,570.017,0.0
56767.0,STARLINK-6197,PAYLOAD,2024-03-05 09:10:24,14.98326156,0.0002868,69.9998,55.9598,264.4631,95.6201,-2.5528e-05,-3.98e-06,0.0,0 STARLINK-6197,1 56767U 23078A   24065.38222879 -.00000398  00000-0 -25528-4 0  9997,2 56767  69.9998  55.9598 0002868 264.4631  95.6201 14.98326156 42198,6950.205,96.107,574.063,570.076,0.0
56767.0,STARLINK-6197,PAYLOAD,2024-03-06 02:47:52,14.98320833,0.0002901,69.9996,54.1092,265.7689,94.3139,0.00023907,2.76e-05,0.0,0 STARLINK-6197,1 56767U 23078A   24066.11658442  .00002760  00000-0  23907-3 0  9999,2 56767  69.9996  54.1092 0002901 265.7689  94.3139 14.98320833 42564,6950.221,96.108,574.102,570.07,0.0
